NIMIQ 2                 
1 27632U 02062A   26177.64410111 -.00000067  00000+0  00000+0 0  9993
2 27632   9.4671  56.7999 0005795  33.3539 307.3033  1.00272427 44277
ANIK F2                 
1 28378U 04027A   26178.21395523 -.00000041  00000+0  00000+0 0  9999
2 28378   3.3128  79.3178 0004281  14.7578 147.1467  1.00272263 41366
ANIK F1R                
1 28868U 05036A   26178.24251016 -.00000068  00000+0  00000+0 0  9994
2 28868   4.3379  76.4601 0004493   7.1420 171.7518  1.00272177 46555
ANIK F3                 
1 31102U 07009A   26178.21248190  .00000010  00000+0  00000+0 0  9993
2 31102   1.2231  83.7453 0002930   7.0963 142.2784  1.00270557 46664
NIMIQ 4                 
1 33373U 08044A   26178.21972426  .00000000  00000+0  00000+0 0  9990
2 33373   0.0286  41.7986 0001941  55.9939 174.6751  1.00268496 65083
TELSTAR 11N             
1 34111U 09009A   26178.22847763  .00000000  00000+0  00000+0 0  9999
2 34111   0.0270  15.4128 0002785  81.4032 223.2304  1.00269262 46343
TERRESTAR-1             
1 35496U 09035A   26178.21395523 -.00000050  00000+0  00000+0 0  9992
2 35496   5.1807  48.7915 0002669  41.7751 150.7757  1.00273246 62232
NIMIQ 5                 
1 35873U 09050A   26178.18447569 -.00000245  00000+0  00000+0 0  9998
2 35873   0.0371 274.4062 0002982 172.4391 182.1634  1.00270953 61449
SKYTERRA 1              
1 37218U 10061A   26178.14458052 -.00000112  00000+0  00000+0 0  9995
2 37218   5.1458  50.8447 0002433  25.0823 150.0698  1.00273017 57299
TELSTAR 14R             
1 37602U 11021A   26178.22345094 -.00000268  00000+0  00000+0 0  9991
2 37602   0.0440  80.4984 0002410 351.2999 220.9899  1.00271425 55939
NIMIQ 6                 
1 38342U 12026A   26178.19558528 -.00000162  00000+0  00000+0 0  9996
2 38342   0.0132  39.4690 0003001  52.5977 162.5456  1.00271579 50510
ANIK G1                 
1 39127U 13014A   26178.27001986 -.00000062  00000+0  00000+0 0  9995
2 39127   0.0197 292.5652 0001970 162.1636 170.5496  1.00271971 48354
TELSTAR 12V             
1 41036U 15068A   26178.16168248 -.00000108  00000+0  00000+0 0  9992
2 41036   0.0189 336.7087 0002534 113.9005 227.8784  1.00269832 38720
VIASAT-2                
1 42740U 17029A   26178.18447569 -.00000254  00000+0  00000+0 0  9994
2 42740   0.0173 301.9701 0000445 151.9436 177.9129  1.00270297 33306
LEO 1 (LEO VANTAGE 1)   
1 43113U 18004C   26178.27080656  .00004758  00000+0  32771-3 0  9999
2 43113  99.2432  97.8759 0350858  48.6309 314.4507 14.67876153438969
TELSTAR 19V             
1 43562U 18059A   26178.22345094 -.00000268  00000+0  00000+0 0  9991
2 43562   0.0372 147.6321 0003034 328.9138 176.2244  1.00270378 29243
TELSTAR 18V             
1 43611U 18069A   26177.97811821 -.00000282  00000+0  00000+0 0  9990
2 43611   0.0171 335.0364 0002243 116.1150 314.0507  1.00273183 28731
AMOS-17                 
1 44479U 19050A   26178.16800918  .00000121  00000+0  00000+0 0  9992
2 44479   0.0257 316.8361 0002220 166.8506 229.0651  1.00272373 25287
